<?xml version="1.0" encoding="UTF-8"?>
<gpx version="1.1" creator="Roadbook Canos de Meca" xmlns="http://www.topografix.com/GPX/1/1" xmlns:xsi="http://www.w3.org/2001/XMLSchema-instance" xsi:schemaLocation="http://www.topografix.com/GPX/1/1 http://www.topografix.com/GPX/1/1/gpx.xsd">
  <metadata>
    <name>D1 E5 Alcala - Los Canos de Meca</name>
    <desc>Medina Sidonia y Vejer. Llegada prevista 18:30-19:30.</desc>
  </metadata>
  <rte>
    <name>D1 E5 Alcala - Los Canos de Meca</name>
    <desc>Medina Sidonia y Vejer. Llegada prevista 18:30-19:30.</desc>
    <rtept lat="36.46212" lon="-5.72382"><name>Alcala de los Gazules</name></rtept>
    <rtept lat="36.45695" lon="-5.92717"><name>Medina Sidonia</name></rtept>
    <rtept lat="36.24456" lon="-5.96953"><name>Vejer de la Frontera</name></rtept>
    <rtept lat="36.18670" lon="-6.02640"><name>Los Canos de Meca</name></rtept>
  </rte>
</gpx>
